#dP2023  6 23  0  0  0.00000000      96 __u+U ITR00 FIT  IAC
## 2267 432000.00000000   900.00000000 60118 0.0000000000000
+  118   C06C07C08C09C10C11C12C13C14C16C19C20C21C22C23C24C25
+        C26C27C28C29C30C32C33C34C35C36C37C38C39C40C41C42C43
+        C44C45C46E02E03E04E07E08E09E10E11E12E13E14E15E18E19
+        E21E24E25E26E27E30E31E33E34E36G01G02G03G04G05G06G07
+        G08G09G10G11G12G13G14G15G16G17G18G19G20G21G22G23G24
+        G25G26G27G28G29G30G31G32J02J03J04R01R02R03R04R05R07
+        R08R09R11R12R13R14R15R16R17R18R19R20R21R22R24R25  0
++         9  7  9  8  8  6  6  9  8  8  6  7  6  7  6  7  5
++         8  6  6  7  6  6  7  6  7  7  7  8  8  7  6  7  7
++         6  9  7  6  7  6  5  6  6  6  6  6  5  5  6  6  6
++         6  7  6  6  6  6  6  6  7  6  6  6  7  6  6  5  7
++         5  6  7  6  6  6  6  5  6  6  6  6  6  6  6  8  6
++         6  6  6  6  6  6  6  6  8  8  7  8  6  7  6  6  6
++         5  6  6  6  7  6  6  6  7  7  7  6  5  5  7  6  0
%c M  cc GPS ccc cccc cccc cccc cccc ccccc ccccc ccccc ccccc
%c cc cc ccc ccc cccc cccc cccc cccc ccccc ccccc ccccc ccccc
%f  0.0000000  0.000000000  0.00000000000  0.000000000000000
%f  0.0000000  0.000000000  0.00000000000  0.000000000000000
%i    0    0    0    0      0      0      0      0         0
%i    0    0    0    0      0      0      0      0         0
/* INFORMATION & ANALYSIS CENTER (IAC)      ULTRA-RAPID DATA
/* S/V CLOCKS ARE ALIGNED TO GNSS TIME                      
/* G:C1WC2W R:C1PC2P E:C1XC5X C:C2IC6I J:C1CC2S             
/* PCV:IGS20_2247 OL/AL:FES2004  NONE     YN ORB:CoN CLK:CoN
*  2023 06 23 18  0  0.00000000
PC06 -15346.245767  24638.194152  30513.225169   -172.803062
PC07 -10733.741612  40885.506946    960.848143   -217.051040
PC08   2590.090280  28951.117597 -30487.351750    450.625894
PC09  -3806.223970  24946.895071  34137.257614    499.480747
PC10  -5833.242520  41768.899984  -4604.053131    -94.324864
PC11 -25758.577607   2039.853484  10631.220539    689.627350
PC12 -12996.579386 -10804.983961  22238.131273    734.721476
PC13   8473.615608  32229.616492 -25513.951653    302.097458
PC14 -15762.759912   -698.128402 -23004.132469    455.272464
PC16 -16592.939658  24191.652144  30426.708236     32.329098
PC19  15604.129217 -10277.001332  20741.771507   -927.770482
PC20  13844.356335   9869.288904  22147.034623    483.564044
PC21  -3515.818956 -25698.103100 -10239.746417   -926.487402
PC22   8478.366029 -25557.564001   7257.945572   -427.539549
PC23  -7179.649047  14948.680324  22454.759564   -967.376296
PC24 -23064.038229 -15510.362637   2618.883509     95.581780
PC25 -21006.795195    909.228946  18351.051342    153.475106
PC26 -12631.446577 -21132.038692 -13181.302621   -138.909022
PC27   4396.296324  15394.770689 -22880.335508    159.477623
PC28 -14228.512889  17752.433934 -16164.305796    118.583952
PC29  25910.621140 -10237.415379  -1611.569979    137.987549
PC30  21142.451129   4213.505625 -17741.920044     -1.480417
PC32   3684.888245  25734.828050  10185.146806   -545.680688
PC33 -15565.999257  10326.309449 -20736.346869   -900.230614
PC34 -21994.184701  -3236.040215  16840.686412    199.580910
PC35  14090.964844 -18253.938628  15725.465151    602.235566
PC36  21383.183200    262.616536 -17897.782762   -366.979303
PC37  11155.970243  21393.764254  14022.043598   -787.266406
PC38  -5243.195991  25762.673117 -32911.530906     87.063874
PC39 -21797.455138  24202.827950  26678.510218     -3.457372
PC40 -16803.012734  38724.228658   2846.243433    -27.141683
PC41  -8731.016505  25316.097213  -7825.201802   -915.364464
PC42 -13413.614974 -11306.498840 -21651.975384   -638.060136
PC43 -26066.143312   9641.068750   2395.621347     27.548564
PC44  -4769.426140 -15431.873601  22739.885749    147.246610
PC45   6606.339966 -15177.752018 -22462.144475   -113.985597
PC46  23408.363434  14609.232826  -4034.575275    -63.699607
PE02 -16803.604566 -20788.011736  12726.820805     45.755799
PE03 -14241.177330  -9413.229240 -24180.374462    -29.247613
PE04  22801.976528  -9603.340946  16255.734450   -151.308155
PE07 -18263.573339  23275.692954   1164.212393    -54.846032
PE08 -22671.632139   9401.954063 -16552.801570   -103.594278
PE09  18324.747641 -23212.333911   -986.033533    -60.406866
PE10  24280.134834  -6204.600230  15734.858695   -543.384403
PE11  15377.614010 -11990.819408  22255.463620   2302.973706
PE12  28678.423346     68.861024   7354.433555   -591.267106
PE13 -16067.521946  11619.043875 -21979.689990    -19.306086
PE14  -5987.843134  26726.167808 -17468.090403    262.467505
PE15 -28746.459416   -260.868083  -7044.783455    -31.715956
PE18    793.982553 -18198.964589  14914.221574    215.936660
PE19  12138.064772  11764.038459  24310.628800  -2232.871199
PE21   6875.706699  28392.591345   4782.603308   -536.699540
PE24   8202.161433 -19448.404123 -20769.646206   -171.239978
PE25  -6642.341053 -28389.414550  -5100.582062   -607.230817
PE26   6647.132306  16702.288196 -23519.987634    142.722214
PE27  -7632.411800  20003.675874  20442.355166    -81.980584
PE30 -17658.498115   -697.845294  23740.525799   -279.327492
PE31  17476.964790     68.837322 -23880.265990   -526.511218
PE33  24349.165337  11890.934143 -11926.451017   -442.787674
PE34 -24472.899250 -11769.304996  11775.915779    -52.383750
PE36  -5831.526713 -16533.746077  23842.247394    -75.642870
PG01  17450.831528  13987.453498 -14933.787072    176.631040
PG02  12538.402176  14177.667855 -18188.775059   -582.995490
PG03  12840.117971  21867.281263   7966.472905   -259.695062
PG04   9746.685823  11714.725187  21760.032596     76.355224
PG05  -4082.789926 -25050.905018   7444.326232   -132.237047
PG06  20093.123618  -6548.968705  16206.842728    583.328292
PG07  25970.991240   6621.631505   1628.056478    144.398809
PG08   -328.672654  19697.337395 -17699.498537   -128.801117
PG09  17146.802370   1779.507377  20142.275504   -128.864924
PG10 -13468.764594   6069.178085 -21882.468925    -42.373925
PG11   5305.160337 -14216.941397  21805.274350   -247.308927
PG12  -9699.614318 -24216.778254   4930.069039   -392.214578
PG13   9519.124521 -20570.504910 -13850.828176    537.949800
PG14  15305.836073  -2688.813437 -21529.929265    100.139144
PG15  -2966.898311 -19638.331502 -17979.008502     51.572261
PG16  -1698.456591  24031.557165  10350.953931   -488.432255
PG17  21442.357020 -12513.130402  -9161.966336    719.247582
PG18 -26187.610517  -4488.973870  -2059.258742   -319.085100
PG19  20579.833870 -16351.123554  -2538.388662    334.538421
PG20   1747.166020 -21208.895827  16040.928523    426.416171
PG21  10038.313729  14794.169364 -19371.252301    152.848873
PG22 -18472.727987  18937.179061   1421.137373    502.408205
PG23 -16667.525233  -7379.381383 -19370.030762     36.055576
PG24 -13955.791559 -14777.708532 -17666.584011   -234.852513
PG25 -16140.271639 -15221.914545  14483.068871    451.719845
PG26  -8427.204937  16358.225689  18917.346938    238.351152
PG27 -10769.746885  22173.656340  -9576.654805     10.662067
PG28 -21325.242944   6554.367642  14389.672272     83.608548
PG29 -15514.784617  -4754.603014  20993.247170   -603.683301
PG30  25253.935717   -965.018834  -8475.843985   -509.097949
PG31 -11545.395228  12236.398923  20471.085387   -218.748549
PG32 -20286.850272  15077.258968  -7644.971634   -506.626325
PJ02 -26608.446957  24033.329271  27314.564117     -0.758024
PJ03 -32522.899046  18967.844223 -14186.709586      7.308761
PJ04 -20518.561008  32336.250033 -12676.362460     95.763610
PR01  12283.620443 -17202.649495  14268.792084     60.000042
PR02   6609.962598 -24430.127415  -3394.405350    -22.669859
PR03  -3399.403851 -17349.568505 -18364.625173     80.230466
PR04 -10997.762664   -802.469247 -22970.156548    192.341640
PR05 -12858.185509  16063.556538 -15049.031284    114.649093
PR07   3928.227973  16607.706317  18981.119411     58.668376
PR08  11215.750167    541.092315  22965.608882    -71.380962
PR09   4013.226487  17420.849087  18254.053967    127.409238
PR11  18890.108306  11839.164045 -12399.767356    -86.965727
PR12  10590.508157  -4536.014175 -22727.384902     28.407912
PR13  -2314.251542 -16292.339179 -19498.438964    -36.384919
PR14 -15799.129124 -19713.058166  -3428.042468     24.844459
PR15 -18661.761779 -10984.605426  13498.149195     88.367959
PR16 -10662.783925   4275.090794  22784.913291     15.939014
PR17 -11461.973626  -7659.860928  21472.641066    641.638961
PR18 -23413.371851   -116.725842  10072.903666     88.085576
PR19 -24173.123268   6277.624850  -5211.125749   -237.336768
PR20  -8869.012980  10983.328773 -21234.366589    -95.273079
PR21  12638.197751   7172.318407 -20962.882768    -17.475478
PR22  23840.506227    554.719449  -9050.307603     84.038535
PR24   7760.787057 -11717.479959  21291.694072    -13.320187
PR25  10978.876291   8509.226649 -21389.246468     58.415362
EOF
